HAWK-7B                 
1 56193U 23054R   26192.74180111  .00003010  00000+0  11419-3 0  9993
2 56193  97.2701  77.7279 0001747  22.4503 337.6813 15.27606976180779
HAWK-7C                 
1 56200U 23054Y   26192.67618003  .00003282  00000+0  12426-3 0  9990
2 56200  97.2677  78.4249 0001280   7.1495 352.9762 15.27610645180767
HAWK-8A                 
1 59443U 24066B   26192.23359215  .00000704  00000+0  75484-4 0  9995
2 59443  45.5949 152.3028 0002707 203.5144 156.5614 14.99279652123445
HAWK-8B                 
1 59445U 24066D   26192.03415611  .00004278  00000+0  36392-3 0  9992
2 59445  45.6155 155.3050 0002966 205.9425 154.1308 14.99278929123406
HAWK-9A                 
1 59446U 24066E   26192.25669923  .00000794  00000+0  82943-4 0  9997
2 59446  45.6090 152.8200 0002422 188.0403 172.0440 14.99208192123443
HAWK-9C                 
1 59448U 24066G   26192.92332291  .00000847  00000+0  87211-4 0  9990
2 59448  45.6051 148.4738 0002279 173.2072 186.8840 14.99213350123547
HAWK-8C                 
1 59449U 24066H   26192.89985868  .00000682  00000+0  73671-4 0  9993
2 59449  45.6069 149.8517 0002529 216.6640 143.4068 14.99284429123533
HAWK-9B                 
1 59450U 24066J   26192.25699136  .00000866  00000+0  88712-4 0  9991
2 59450  45.6130 153.7545 0002426 164.1569 195.9388 14.99209751123444
HAWK-10A                
1 60540U 24149CA  26192.90849862  .00000706  00000+0  67052-4 0  9997
2 60540  97.6893 268.3954 0003448  17.5419 342.5921 14.96588901103687
HAWK-10B                
1 60545U 24149CF  26192.77463925  .00000618  00000+0  59344-4 0  9996
2 60545  97.6812 267.5940 0005811  27.0134 333.1389 14.96587830103667
HAWK-10C                
1 60575U 24149DM  26192.77497084  .00000494  00000+0  48415-4 0  9991
2 60575  97.6731 266.9081 0002976   5.8193 354.3063 14.96586892103668
HAWK-11B                
1 62379U 24247C   26192.31987250  .00004419  00000+0  15649-3 0  9996
2 62379  45.0133 157.4287 0003572 358.9894   1.0982 15.30632142 86700
HAWK-11C                
1 62381U 24247E   26192.90678711  .00004369  00000+0  15480-3 0  9990
2 62381  45.0017 153.5448 0004417 351.8498   8.2314 15.30634627 86798
HAWK-11A                
1 62382U 24247F   26191.92791228  .00003319  00000+0  12011-3 0  9992
2 62382  44.9912 158.2462 0004065 346.2323  13.8450 15.30622161 86640
HAWK-12C                
1 64621U 25138A   26192.55918696  .00002661  00000+0  13236-3 0  9999
2 64621  97.4348 194.5915 0015568  62.5737 297.7079 15.18388166 57566
HAWK-12B                
1 64622U 25138B   26192.55936027  .00002653  00000+0  13202-3 0  9992
2 64622  97.4473 195.2793 0014454  58.7627 301.5021 15.18387603 57562
